     2.10           N: GPS NAV DATA                         RINEX VERSION / TYPE
EPHEMCHECK 2.10     MCC D.ZALETAEV      03-Jan-20 19:02     PGM / RUN BY / DATE
A new version of accumulating navigation files by IANC      COMMENT
    7.4510D-09 -1.4900D-08 -5.9600D-08  1.1920D-07          ION ALPHA
    9.2160D+04 -1.1470D+05 -1.3110D+05  7.2090D+05          ION BETA
    4.656612873080D-09 1.509903313490D-14   503808     2086 DELTA-UTC: A0,A1,T,W
    18                                                      LEAP SECONDS
                                                            END OF HEADER
 1 20 01 01 00 00  0.0-2.479013055563D-04-1.216449163621D-11 0.000000000000D+00
    7.200000000000D+01-1.956250000000D+01 4.218033033965D-09-1.483804704890D+00
   -9.573996067047D-07 9.235781384632D-03 3.913417458534D-06 5.153638690948D+03
    2.592000000000D+05 2.067536115646D-07-5.786517456821D-01-1.005828380585D-07
    9.785100924501D-01 3.135937500000D+02 7.594713900033D-01-8.066050050104D-09
    5.714523906158D-12 1.000000000000D+00 2.086000000000D+03 0.000000000000D+00
    2.000000000000D+00 0.000000000000D+00 5.587935447693D-09 7.200000000000D+01
    2.519400000000D+05 4.000000000000D+00
 2 20 01 01 00 00  0.0-3.772568888962D-04-7.275957614183D-12 0.000000000000D+00
    7.400000000000D+01 6.562500000000D-01 4.867702685374D-09-1.192028084389D+00
    3.837049007416D-07 1.965145510621D-02 4.123896360397D-06 5.153602300644D+03
    2.592000000000D+05-1.545995473862D-07-6.518864092741D-01 4.768371582031D-07
    9.575227288251D-01 3.020000000000D+02-1.682558615971D+00-8.560356867804D-09
    5.714523906158D-12 1.000000000000D+00 2.086000000000D+03 0.000000000000D+00
    2.000000000000D+00 0.000000000000D+00-1.769512891769D-08 7.400000000000D+01
    2.519400000000D+05 4.000000000000D+00
 3 20 01 01 00 00  0.0-6.339838728309D-05-7.275957614183D-12 0.000000000000D+00
    6.500000000000D+01-8.109375000000D+01 4.259105956805D-09-2.652079837542D+00
   -4.099681973457D-06 2.600475912914D-03 8.268281817436D-06 5.153646711349D+03
    2.592000000000D+05-7.450580596924D-09 4.623343977406D-01 2.980232238770D-08
    9.647427547338D-01 2.212500000000D+02 7.768202964263D-01-7.918544042695D-09
   -5.214502787898D-11 1.000000000000D+00 2.086000000000D+03 0.000000000000D+00
    2.000000000000D+00 0.000000000000D+00 2.328306436539D-09 6.500000000000D+01
    2.519400000000D+05 4.000000000000D+00
 4 20  1  1  0  0  0.0-2.795038744807D-05-5.229594535194D-12 0.000000000000D+00
    1.870000000000D+02 4.218750000000D+00 4.502330397276D-09-2.101861433480D-01
    2.477318048477D-07 4.428977845237D-04 9.799376130104D-06 5.153732210159D+03
    2.592000000000D+05 5.587935447693D-09 1.540546630476D+00 4.656612873077D-08
    9.594910470648D-01 1.888437500000D+02-2.709506948606D+00-7.957474317889D-09
    3.582292073987D-10 1.000000000000D+00 2.086000000000D+03 0.000000000000D+00
    2.000000000000D+00 6.300000000000D+01-4.190951585770D-09 9.550000000000D+02
    2.520180000000D+05 4.000000000000D+00
 5 20 01 01 00 00  0.0-5.462206900120D-06-5.684341886081D-13 0.000000000000D+00
    6.100000000000D+01-8.012500000000D+01 4.670551501107D-09 1.385823384901D+00
   -4.127621650696D-06 5.782919353805D-03 7.523223757744D-06 5.153575809479D+03
    2.592000000000D+05-4.470348358154D-08 4.324833290437D-01-5.029141902924D-08
    9.516433605429D-01 2.333750000000D+02 8.046932189997D-01-8.181411992325D-09
   -1.142904729190D-10 1.000000000000D+00 2.086000000000D+03 0.000000000000D+00
    2.000000000000D+00 0.000000000000D+00-1.117587089539D-08 6.100000000000D+01
    2.519400000000D+05 0.000000000000D+00
 6 20 01 01 00 00  0.0-1.696799881756D-04-1.068656274583D-11 0.000000000000D+00
    1.500000000000D+01-1.043750000000D+01 4.315893864515D-09-1.142517933406D+00
   -5.066394805908D-07 1.741881249472D-03 4.068017005920D-06 5.153722364426D+03
    2.592000000000D+05-5.029141902924D-08-5.869129172217D-01 2.048909664154D-08
    9.781038357108D-01 3.119687500000D+02-1.191920100554D+00-8.174983356923D-09
    3.714440560687D-11 1.000000000000D+00 2.086000000000D+03 0.000000000000D+00
    2.000000000000D+00 0.000000000000D+00 4.656612873077D-09 1.500000000000D+01
    2.519400000000D+05 0.000000000000D+00
 7 20 01 01 00 00  0.0-1.822132617235D-04-8.299139153678D-12 0.000000000000D+00
    3.500000000000D+01 1.871875000000D+01 4.951277610132D-09-2.191134111862D+00
    7.245689630508D-07 1.322290522512D-02 6.139278411865D-06 5.153702793121D+03
    2.592000000000D+05 1.564621925354D-07 2.568884157434D+00-1.229345798492D-07
    9.540188615492D-01 2.555625000000D+02-2.420922371466D+00-8.073550716858D-09
    1.632210894220D-10 1.000000000000D+00 2.086000000000D+03 0.000000000000D+00
    2.000000000000D+00 0.000000000000D+00-1.117587089539D-08 3.500000000000D+01
    2.519400000000D+05 0.000000000000D+00
 8 20 01 01 00 00  0.0-1.867301762104D-05-1.250555214938D-12 0.000000000000D+00
    1.120000000000D+02 6.590625000000D+01 4.253748464578D-09 9.159407819129D-01
    3.421679139137D-06 4.950519418344D-03 7.079914212227D-06 5.153610361099D+03
    2.592000000000D+05 8.381903171539D-08-1.647513620481D+00 3.166496753693D-08
    9.699277986889D-01 2.424687500000D+02-2.189695312913D-01-8.037120302617D-09
   -2.607251393949D-11 1.000000000000D+00 2.086000000000D+03 0.000000000000D+00
    2.800000000000D+00 0.000000000000D+00 5.122274160385D-09 1.120000000000D+02
    2.519400000000D+05 0.000000000000D+00
 9 20 01 01 00 00  0.0-1.218463294208D-04-9.094947017729D-12 0.000000000000D+00
    1.400000000000D+01-3.125000000000D-02 4.638050388195D-09 1.202990191839D+00
    1.490116119385D-08 1.716805505566D-03 9.857118129730D-06 5.153535079956D+03
    2.592000000000D+05 3.725290298462D-09 1.493777499360D+00 0.000000000000D+00
    9.521799442652D-01 1.826250000000D+02 1.699655976557D+00-8.037477350342D-09
    3.464430131661D-10 1.000000000000D+00 2.086000000000D+03 0.000000000000D+00
    2.000000000000D+00 0.000000000000D+00 1.396983861923D-09 1.400000000000D+01
    2.519400000000D+05 0.000000000000D+00
10 20 01 01 00 00  0.0-1.930384896696D-04-1.386979420204D-11 0.000000000000D+00
    7.200000000000D+01-7.590625000000D+01 4.254463004116D-09 2.782644238908D+00
   -3.889203071594D-06 5.257318145595D-03 8.348375558853D-06 5.153668828964D+03
    2.592000000000D+05-7.078051567078D-08 4.592154344518D-01-5.774199962616D-08
    9.647231560203D-01 2.203750000000D+02-2.715336103688D+00-7.862827722249D-09
    7.500312003417D-12 1.000000000000D+00 2.086000000000D+03 0.000000000000D+00
    2.000000000000D+00 0.000000000000D+00 1.862645149231D-09 7.200000000000D+01
    2.519400000000D+05 0.000000000000D+00
11 20 01 01 00 00  0.0-4.031504504383D-04 1.091393642128D-11 0.000000000000D+00
    3.700000000000D+01 4.334375000000D+01 5.581303863522D-09-2.254137894440D+00
    2.425163984299D-06 1.593664940447D-02 3.812834620476D-06 5.152863874435D+03
    2.592000000000D+05 1.303851604462D-07-1.043690313845D+00 3.017485141754D-07
    9.114938284052D-01 2.797500000000D+02 1.971078833494D+00-8.610358648298D-09
    7.607459800996D-11 1.000000000000D+00 2.086000000000D+03 0.000000000000D+00
    2.000000000000D+00 0.000000000000D+00-1.210719347000D-08 3.700000000000D+01
    2.519400000000D+05 0.000000000000D+00
12 20 01 01 00 00  0.0 1.672110520303D-04-4.092726157978D-12 0.000000000000D+00
    5.800000000000D+01 1.056250000000D+01 4.114457219373D-09-2.795047393812D+00
    5.941838026047D-07 7.758454652503D-03 8.564442396164D-06 5.153773160934D+03
    2.592000000000D+05 1.247972249985D-07-2.610873443644D+00-1.136213541031D-07
    9.804319308567D-01 2.227500000000D+02 1.094645169577D+00-7.707106952637D-09
   -2.521533537525D-10 1.000000000000D+00 2.086000000000D+03 0.000000000000D+00
    2.000000000000D+00 0.000000000000D+00-1.257285475731D-08 5.800000000000D+01
    2.519400000000D+05 0.000000000000D+00
13 20 01 01 00 00  0.0-2.298923209310D-05 2.501110429876D-12 0.000000000000D+00
    3.600000000000D+01 3.062500000000D+00 4.425898758598D-09-1.743684769527D-01
    1.545995473862D-07 4.166969098151D-03 8.957460522652D-06 5.153663162231D+03
    2.592000000000D+05 0.000000000000D+00 1.634432009522D+00 2.980232238770D-08
    9.674187274103D-01 2.126562500000D+02 1.178565004375D+00-7.938901980253D-09
    3.182275276625D-10 1.000000000000D+00 2.086000000000D+03 0.000000000000D+00
    2.000000000000D+00 0.000000000000D+00-1.117587089539D-08 3.600000000000D+01
    2.519400000000D+05 0.000000000000D+00
14 20 01 01 00 00  0.0-4.151044413447D-05 2.273736754432D-12 0.000000000000D+00
    9.400000000000D+01 1.321875000000D+01 4.608406101170D-09 3.992949901819D-01
    5.960464477539D-07 1.076979155187D-02 9.123235940933D-06 5.153601451874D+03
    2.592000000000D+05-2.142041921616D-07 1.588488760030D+00 5.029141902924D-08
    9.600108306359D-01 2.049062500000D+02-1.931736941855D+00-8.155696562540D-09
    2.739399818097D-10 1.000000000000D+00 2.086000000000D+03 0.000000000000D+00
    2.000000000000D+00 0.000000000000D+00-9.778887033463D-09 9.400000000000D+01
    2.519400000000D+05 0.000000000000D+00
15 20 01 01 00 00  0.0-2.617612481117D-04 2.614797267597D-12 0.000000000000D+00
    6.400000000000D+01-5.375000000000D+00 5.282362991466D-09-1.902699970977D-01
   -1.378357410431D-07 1.210996462032D-02 9.102746844292D-06 5.153615966797D+03
    2.592000000000D+05 3.911554813385D-08 1.408094223611D+00 1.657754182816D-07
    9.277283847768D-01 1.881562500000D+02 8.553967629601D-01-8.511783278209D-09
    3.050127095339D-10 1.000000000000D+00 2.086000000000D+03 0.000000000000D+00
    2.000000000000D+00 0.000000000000D+00-1.117587089539D-08 6.400000000000D+01
    2.519400000000D+05 0.000000000000D+00
